{
  "type": "FeatureCollection",
  "features": [
    {
      "type": "Feature",
      "properties": {
        "norad_id": 43783,
        "name": "KAZSTSAT",
        "group": "resource",
        "lat": 80.22339454333247,
        "lon": -13.309398656563387,
        "alt_km": 565.9186355466809,
        "timestamp": "2025-12-27T13:34:48.947465+00:00",
        "meta_object_name": "KAZSTSAT",
        "meta_object_id": "2018-099AB",
        "meta_epoch": "2025-12-27T01:59:47.585760",
        "meta_mean_motion": 14.99376687,
        "meta_eccentricity": 0.0006458,
        "meta_inclination": 97.4508,
        "meta_ra_of_asc_node": 35.6488,
        "meta_arg_of_pericenter": 266.4157,
        "meta_mean_anomaly": 93.6328,
        "meta_ephemeris_type": 0,
        "meta_classification_type": "U",
        "meta_norad_cat_id": 43783,
        "meta_element_set_no": 999,
        "meta_rev_at_epoch": 38551,
        "meta_bstar": 8.5264892e-05,
        "meta_mean_motion_dot": 9.87e-06,
        "meta_mean_motion_ddot": 0,
        "tle_line1": "1 43783U 18099AB  25361.08318965  .00000987  00000+0  85265-4 0  9992",
        "tle_line2": "2 43783  97.4508  35.6488 0006458 266.4157  93.6328 14.99376687385511"
      },
      "geometry": {
        "type": "Point",
        "coordinates": [
          -13.309398656563387,
          80.22339454333247
        ]
      }
    },
    {
      "type": "Feature",
      "properties": {
        "norad_id": 43831,
        "name": "SAUDISAT 5A",
        "group": "resource",
        "lat": 75.66374449759566,
        "lon": -88.27169299008739,
        "alt_km": 478.8655097179126,
        "timestamp": "2025-12-27T13:34:48.947475+00:00",
        "meta_object_name": "SAUDISAT 5A",
        "meta_object_id": "2018-102A",
        "meta_epoch": "2025-12-27T06:50:18.843648",
        "meta_mean_motion": 15.25838016,
        "meta_eccentricity": 0.00108889,
        "meta_inclination": 97.3331,
        "meta_ra_of_asc_node": 61.1949,
        "meta_arg_of_pericenter": 30.6817,
        "meta_mean_anomaly": 329.5056,
        "meta_ephemeris_type": 0,
        "meta_classification_type": "U",
        "meta_norad_cat_id": 43831,
        "meta_element_set_no": 999,
        "meta_rev_at_epoch": 38944,
        "meta_bstar": 0.00028080456,
        "meta_mean_motion_dot": 7.126e-05,
        "meta_mean_motion_ddot": 0,
        "tle_line1": "1 43831U 18102A   25361.28494032  .00007126  00000+0  28080-3 0  9996",
        "tle_line2": "2 43831  97.3331  61.1949 0010888  30.6817 329.5056 15.25838016389444"
      },
      "geometry": {
        "type": "Point",
        "coordinates": [
          -88.27169299008739,
          75.66374449759566
        ]
      }
    },
    {
      "type": "Feature",
      "properties": {
        "norad_id": 43833,
        "name": "SAUDISAT 5B",
        "group": "resource",
        "lat": 6.697958407484987,
        "lon": -114.89664611156223,
        "alt_km": 495.66391255148756,
        "timestamp": "2025-12-27T13:34:48.947485+00:00",
        "meta_object_name": "SAUDISAT 5B",
        "meta_object_id": "2018-102C",
        "meta_epoch": "2025-12-27T08:06:14.630976",
        "meta_mean_motion": 15.26182363,
        "meta_eccentricity": 0.00116443,
        "meta_inclination": 97.3425,
        "meta_ra_of_asc_node": 64.0115,
        "meta_arg_of_pericenter": 32.4616,
        "meta_mean_anomaly": 327.7337,
        "meta_ephemeris_type": 0,
        "meta_classification_type": "U",
        "meta_norad_cat_id": 43833,
        "meta_element_set_no": 999,
        "meta_rev_at_epoch": 38956,
        "meta_bstar": 0.00026355975,
        "meta_mean_motion_dot": 6.755e-05,
        "meta_mean_motion_ddot": 0,
        "tle_line1": "1 43833U 18102C   25361.33766934  .00006755  00000+0  26356-3 0  9998",
        "tle_line2": "2 43833  97.3425  64.0115 0011644  32.4616 327.7337 15.26182363389568"
      },
      "geometry": {
        "type": "Point",
        "coordinates": [
          -114.89664611156223,
          6.697958407484987
        ]
      }
    },
    {
      "type": "Feature",
      "properties": {
        "norad_id": 44622,
        "name": "GAOFEN-10R",
        "group": "resource",
        "lat": -29.224680608133067,
        "lon": -46.338584269548925,
        "alt_km": 622.0632343532861,
        "timestamp": "2025-12-27T13:34:48.947496+00:00",
        "meta_object_name": "GAOFEN-10R",
        "meta_object_id": "2019-066A",
        "meta_epoch": "2025-12-27T07:14:06.184608",
        "meta_mean_motion": 14.82842569,
        "meta_eccentricity": 0.0006791,
        "meta_inclination": 98.0296,
        "meta_ra_of_asc_node": 308.8664,
        "meta_arg_of_pericenter": 358.7097,
        "meta_mean_anomaly": 1.4097,
        "meta_ephemeris_type": 0,
        "meta_classification_type": "U",
        "meta_norad_cat_id": 44622,
        "meta_element_set_no": 999,
        "meta_rev_at_epoch": 33690,
        "meta_bstar": 0.00024106845,
        "meta_mean_motion_dot": 1.898e-05,
        "meta_mean_motion_ddot": 0,
        "tle_line1": "1 44622U 19066A   25361.30146047  .00001898  00000+0  24107-3 0  9994",
        "tle_line2": "2 44622  98.0296 308.8664 0006791 358.7097   1.4097 14.82842569336902"
      },
      "geometry": {
        "type": "Point",
        "coordinates": [
          -46.338584269548925,
          -29.224680608133067
        ]
      }
    },
    {
      "type": "Feature",
      "properties": {
        "norad_id": 44804,
        "name": "CARTOSAT-3",
        "group": "resource",
        "lat": -81.9955401813473,
        "lon": 129.59713367424712,
        "alt_km": 520.4319174593566,
        "timestamp": "2025-12-27T13:34:48.947506+00:00",
        "meta_object_name": "CARTOSAT-3",
        "meta_object_id": "2019-081A",
        "meta_epoch": "2025-12-27T06:03:34.175232",
        "meta_mean_motion": 15.19275671,
        "meta_eccentricity": 0.00133991,
        "meta_inclination": 97.4558,
        "meta_ra_of_asc_node": 60.6501,
        "meta_arg_of_pericenter": 37.1948,
        "meta_mean_anomaly": 323.0212,
        "meta_ephemeris_type": 0,
        "meta_classification_type": "U",
        "meta_norad_cat_id": 44804,
        "meta_element_set_no": 999,
        "meta_rev_at_epoch": 33736,
        "meta_bstar": 0.00021209323,
        "meta_mean_motion_dot": 4.414e-05,
        "meta_mean_motion_ddot": 0,
        "tle_line1": "1 44804U 19081A   25361.25247888  .00004414  00000+0  21209-3 0  9999",
        "tle_line2": "2 44804  97.4558  60.6501 0013399  37.1948 323.0212 15.19275671337364"
      },
      "geometry": {
        "type": "Point",
        "coordinates": [
          129.59713367424712,
          -81.9955401813473
        ]
      }
    },
    {
      "type": "Feature",
      "properties": {
        "norad_id": 44819,
        "name": "GAOFEN-12 01",
        "group": "resource",
        "lat": 56.44797183418457,
        "lon": -160.59427014657638,
        "alt_km": 620.7021290146222,
        "timestamp": "2025-12-27T13:34:48.947516+00:00",
        "meta_object_name": "GAOFEN-12 01",
        "meta_object_id": "2019-082A",
        "meta_epoch": "2025-12-27T06:32:26.070144",
        "meta_mean_motion": 14.8067432,
        "meta_eccentricity": 0.00023747,
        "meta_inclination": 97.8125,
        "meta_ra_of_asc_node": 7.172,
        "meta_arg_of_pericenter": 172.0724,
        "meta_mean_anomaly": 188.0527,
        "meta_ephemeris_type": 0,
        "meta_classification_type": "U",
        "meta_norad_cat_id": 44819,
        "meta_element_set_no": 999,
        "meta_rev_at_epoch": 32865,
        "meta_bstar": 8.449786e-05,
        "meta_mean_motion_dot": 5.99e-06,
        "meta_mean_motion_ddot": 0,
        "tle_line1": "1 44819U 19082A   25361.27252396  .00000599  00000+0  84498-4 0  9998",
        "tle_line2": "2 44819  97.8125   7.1720 0002374 172.0724 188.0527 14.80674320328656"
      },
      "geometry": {
        "type": "Point",
        "coordinates": [
          -160.59427014657638,
          56.44797183418457
        ]
      }
    },
    {
      "type": "Feature",
      "properties": {
        "norad_id": 44873,
        "name": "CSG-1",
        "group": "resource",
        "lat": -46.397968807912186,
        "lon": -168.97070761618886,
        "alt_km": 629.9595189399761,
        "timestamp": "2025-12-27T13:34:48.947526+00:00",
        "meta_object_name": "CSG-1",
        "meta_object_id": "2019-092A",
        "meta_epoch": "2025-12-27T07:18:39.159360",
        "meta_mean_motion": 14.82164521,
        "meta_eccentricity": 0.00014449,
        "meta_inclination": 97.8805,
        "meta_ra_of_asc_node": 182.4095,
        "meta_arg_of_pericenter": 84.9347,
        "meta_mean_anomaly": 275.2031,
        "meta_ephemeris_type": 0,
        "meta_classification_type": "U",
        "meta_norad_cat_id": 44873,
        "meta_element_set_no": 999,
        "meta_rev_at_epoch": 32601,
        "meta_bstar": 0.00010116221,
        "meta_mean_motion_dot": 7.53e-06,
        "meta_mean_motion_ddot": 0,
        "tle_line1": "1 44873U 19092A   25361.30461990  .00000753  00000+0  10116-3 0  9992",
        "tle_line2": "2 44873  97.8805 182.4095 0001444  84.9347 275.2031 14.82164521326018"
      },
      "geometry": {
        "type": "Point",
        "coordinates": [
          -168.97070761618886,
          -46.397968807912186
        ]
      }
    }
  ]
}